SL-14 R/B               
1 16792U 86046B   25350.95821117  .00000520  00000+0  57134-4 0  9998
2 16792  82.4810 158.3298 0024085 138.7679 221.5362 14.85489384114120
SL-14 R/B               
1 16882U 86055B   25350.68735670  .00000456  00000+0  49854-4 0  9994
2 16882  82.5200 204.6635 0017550 245.2214 178.6270 14.85534740107042
AJISAI (EGS)            
1 16908U 86061A   25350.99392525 -.00000089  00000+0  59965-4 0  9999
2 16908  50.0113 347.6358 0011307  76.6023 328.5772 12.44514345457708
COSMOS 1812             
1 17295U 87003A   25350.85773601  .00095990  00000+0  60481-3 0  9997
2 17295  82.4869 287.5550 0007066  80.7687 279.4377 15.76328944131306
SL-14 R/B               
1 17567U 87024B   25350.95427717  .00000489  00000+0  53002-4 0  9998
2 17567  82.5274 170.4952 0018448 170.2261 189.9318 14.86028183 75842
COSMOS 1833             
1 17589U 87027A   25350.82366690  .00000189  00000+0  12668-3 0  9992
2 17589  70.9141 140.1917 0022696 326.0268  33.9399 14.13023381998603
SL-16 R/B               
1 17590U 87027B   25350.68464111  .00000214  00000+0  13014-3 0  9990
2 17590  71.0033  91.4057 0007289 255.0717 104.9600 14.17153411  3581
SL-14 R/B               
1 17912U 87038B   25350.56987234  .00000435  00000+0  47691-4 0  9997
2 17912  82.5014  15.0932 0020876  80.4044 279.9529 14.85264814 66890
COSMOS 1844             
1 17973U 87041A   25350.94638482  .00000116  00000+0  85172-4 0  9990
2 17973  70.8965 208.6989 0029945 150.4474 209.8348 14.14526647991889
SL-14 R/B               
1 18153U 87055B   25350.96521630  .00000441  00000+0  48219-4 0  9996
2 18153  82.4999  67.0064 0019223 288.3807  71.5318 14.85525655 57651
COSMOS 1867             
1 18187U 87060A   25350.86446939 -.00000012  00000+0  33041-4 0  9998
2 18187  65.0086 178.6516 0013622 271.5270  88.4254 14.31486737  8085
SL-14 R/B               
1 18749U 88001B   25350.88773734  .00000442  00000+0  48356-4 0  9997
2 18749  82.5134 273.2459 0018835 147.8327 212.4043 14.85428388 29731
