CCSDS_OMM_VERS = 2.0
CREATION_DATE  = 
ORIGINATOR     = 

OBJECT_NAME    = SL-14 R/B
OBJECT_ID      = 1986-046B
CENTER_NAME    = EARTH
REF_FRAME      = TEME
TIME_SYSTEM    = UTC
MEAN_ELEMENT_THEORY = SGP/SGP4

EPOCH          = 2025-12-16T22:59:49.445088
MEAN_MOTION    = 14.85489384
ECCENTRICITY   = .00240858
INCLINATION    = 82.4810
RA_OF_ASC_NODE = 158.3298
ARG_OF_PERICENTER = 138.7679
MEAN_ANOMALY   = 221.5362

EPHEMERIS_TYPE = 0
CLASSIFICATION_TYPE = U
NORAD_CAT_ID   = 16792
ELEMENT_SET_NO = 999
REV_AT_EPOCH   = 11412
BSTAR          = .57133686E-4
MEAN_MOTION_DOT = .52E-5
MEAN_MOTION_DDOT = 0

CCSDS_OMM_VERS = 2.0
CREATION_DATE  = 
ORIGINATOR     = 

OBJECT_NAME    = SL-14 R/B
OBJECT_ID      = 1986-055B
CENTER_NAME    = EARTH
REF_FRAME      = TEME
TIME_SYSTEM    = UTC
MEAN_ELEMENT_THEORY = SGP/SGP4

EPOCH          = 2025-12-16T16:29:47.618880
MEAN_MOTION    = 14.85534740
ECCENTRICITY   = .00175505
INCLINATION    = 82.5200
RA_OF_ASC_NODE = 204.6635
ARG_OF_PERICENTER = 245.2214
MEAN_ANOMALY   = 178.6270

EPHEMERIS_TYPE = 0
CLASSIFICATION_TYPE = U
NORAD_CAT_ID   = 16882
ELEMENT_SET_NO = 999
REV_AT_EPOCH   = 10704
BSTAR          = .49854125E-4
MEAN_MOTION_DOT = .456E-5
MEAN_MOTION_DDOT = 0

CCSDS_OMM_VERS = 2.0
CREATION_DATE  = 
ORIGINATOR     = 

OBJECT_NAME    = AJISAI (EGS)
OBJECT_ID      = 1986-061A
CENTER_NAME    = EARTH
REF_FRAME      = TEME
TIME_SYSTEM    = UTC
MEAN_ELEMENT_THEORY = SGP/SGP4

EPOCH          = 2025-12-16T23:51:15.141600
MEAN_MOTION    = 12.44514345
ECCENTRICITY   = .0011307
INCLINATION    = 50.0113
RA_OF_ASC_NODE = 347.6358
ARG_OF_PERICENTER = 76.6023
MEAN_ANOMALY   = 328.5772

EPHEMERIS_TYPE = 0
CLASSIFICATION_TYPE = U
NORAD_CAT_ID   = 16908
ELEMENT_SET_NO = 999
REV_AT_EPOCH   = 45770
BSTAR          = .59964548E-4
MEAN_MOTION_DOT = -.89E-6
MEAN_MOTION_DDOT = 0

CCSDS_OMM_VERS = 2.0
CREATION_DATE  = 
ORIGINATOR     = 

OBJECT_NAME    = COSMOS 1812
OBJECT_ID      = 1987-003A
CENTER_NAME    = EARTH
REF_FRAME      = TEME
TIME_SYSTEM    = UTC
MEAN_ELEMENT_THEORY = SGP/SGP4

EPOCH          = 2025-12-16T20:35:08.391264
MEAN_MOTION    = 15.76328944
ECCENTRICITY   = .00070667
INCLINATION    = 82.4869
RA_OF_ASC_NODE = 287.5550
ARG_OF_PERICENTER = 80.7687
MEAN_ANOMALY   = 279.4377

EPHEMERIS_TYPE = 0
CLASSIFICATION_TYPE = U
NORAD_CAT_ID   = 17295
ELEMENT_SET_NO = 999
REV_AT_EPOCH   = 13130
BSTAR          = .60480882E-3
MEAN_MOTION_DOT = .9599E-3
MEAN_MOTION_DDOT = 0

CCSDS_OMM_VERS = 2.0
CREATION_DATE  = 
ORIGINATOR     = 

OBJECT_NAME    = SL-14 R/B
OBJECT_ID      = 1987-024B
CENTER_NAME    = EARTH
REF_FRAME      = TEME
TIME_SYSTEM    = UTC
MEAN_ELEMENT_THEORY = SGP/SGP4

EPOCH          = 2025-12-16T22:54:09.547488
MEAN_MOTION    = 14.86028183
ECCENTRICITY   = .00184488
INCLINATION    = 82.5274
RA_OF_ASC_NODE = 170.4952
ARG_OF_PERICENTER = 170.2261
MEAN_ANOMALY   = 189.9318

EPHEMERIS_TYPE = 0
CLASSIFICATION_TYPE = U
NORAD_CAT_ID   = 17567
ELEMENT_SET_NO = 999
REV_AT_EPOCH   = 7584
BSTAR          = .53002109E-4
MEAN_MOTION_DOT = .489E-5
MEAN_MOTION_DDOT = 0

CCSDS_OMM_VERS = 2.0
CREATION_DATE  = 
ORIGINATOR     = 

OBJECT_NAME    = COSMOS 1833
OBJECT_ID      = 1987-027A
CENTER_NAME    = EARTH
REF_FRAME      = TEME
TIME_SYSTEM    = UTC
MEAN_ELEMENT_THEORY = SGP/SGP4

EPOCH          = 2025-12-16T19:46:04.820160
MEAN_MOTION    = 14.13023381
ECCENTRICITY   = .00226965
INCLINATION    = 70.9141
RA_OF_ASC_NODE = 140.1917
ARG_OF_PERICENTER = 326.0268
MEAN_ANOMALY   = 33.9399

EPHEMERIS_TYPE = 0
CLASSIFICATION_TYPE = U
NORAD_CAT_ID   = 17589
ELEMENT_SET_NO = 999
REV_AT_EPOCH   = 99860
BSTAR          = .12667862E-3
MEAN_MOTION_DOT = .189E-5
MEAN_MOTION_DDOT = 0

CCSDS_OMM_VERS = 2.0
CREATION_DATE  = 
ORIGINATOR     = 

OBJECT_NAME    = SL-16 R/B
OBJECT_ID      = 1987-027B
CENTER_NAME    = EARTH
REF_FRAME      = TEME
TIME_SYSTEM    = UTC
MEAN_ELEMENT_THEORY = SGP/SGP4

EPOCH          = 2025-12-16T16:25:52.991904
MEAN_MOTION    = 14.17153411
ECCENTRICITY   = .00072895
INCLINATION    = 71.0033
RA_OF_ASC_NODE = 91.4057
ARG_OF_PERICENTER = 255.0717
MEAN_ANOMALY   = 104.9600

EPHEMERIS_TYPE = 0
CLASSIFICATION_TYPE = U
NORAD_CAT_ID   = 17590
ELEMENT_SET_NO = 999
REV_AT_EPOCH   = 358
BSTAR          = .13013802E-3
MEAN_MOTION_DOT = .214E-5
MEAN_MOTION_DDOT = 0

CCSDS_OMM_VERS = 2.0
CREATION_DATE  = 
ORIGINATOR     = 

OBJECT_NAME    = SL-14 R/B
OBJECT_ID      = 1987-038B
CENTER_NAME    = EARTH
REF_FRAME      = TEME
TIME_SYSTEM    = UTC
MEAN_ELEMENT_THEORY = SGP/SGP4

EPOCH          = 2025-12-16T13:40:36.970176
MEAN_MOTION    = 14.85264814
ECCENTRICITY   = .00208769
INCLINATION    = 82.5014
RA_OF_ASC_NODE = 15.0932
ARG_OF_PERICENTER = 80.4044
MEAN_ANOMALY   = 279.9529

EPHEMERIS_TYPE = 0
CLASSIFICATION_TYPE = U
NORAD_CAT_ID   = 17912
ELEMENT_SET_NO = 999
REV_AT_EPOCH   = 6689
BSTAR          = .47691482E-4
MEAN_MOTION_DOT = .435E-5
MEAN_MOTION_DDOT = 0

CCSDS_OMM_VERS = 2.0
CREATION_DATE  = 
ORIGINATOR     = 

OBJECT_NAME    = COSMOS 1844
OBJECT_ID      = 1987-041A
CENTER_NAME    = EARTH
REF_FRAME      = TEME
TIME_SYSTEM    = UTC
MEAN_ELEMENT_THEORY = SGP/SGP4

EPOCH          = 2025-12-16T22:42:47.648448
MEAN_MOTION    = 14.14526647
ECCENTRICITY   = .00299457
INCLINATION    = 70.8965
RA_OF_ASC_NODE = 208.6989
ARG_OF_PERICENTER = 150.4474
MEAN_ANOMALY   = 209.8348

EPHEMERIS_TYPE = 0
CLASSIFICATION_TYPE = U
NORAD_CAT_ID   = 17973
ELEMENT_SET_NO = 999
REV_AT_EPOCH   = 99188
BSTAR          = .85172407E-4
MEAN_MOTION_DOT = .116E-5
MEAN_MOTION_DDOT = 0

CCSDS_OMM_VERS = 2.0
CREATION_DATE  = 
ORIGINATOR     = 

OBJECT_NAME    = SL-14 R/B
OBJECT_ID      = 1987-055B
CENTER_NAME    = EARTH
REF_FRAME      = TEME
TIME_SYSTEM    = UTC
MEAN_ELEMENT_THEORY = SGP/SGP4

EPOCH          = 2025-12-16T23:09:54.688320
MEAN_MOTION    = 14.85525655
ECCENTRICITY   = .00192235
INCLINATION    = 82.4999
RA_OF_ASC_NODE = 67.0064
ARG_OF_PERICENTER = 288.3807
MEAN_ANOMALY   = 71.5318

EPHEMERIS_TYPE = 0
CLASSIFICATION_TYPE = U
NORAD_CAT_ID   = 18153
ELEMENT_SET_NO = 999
REV_AT_EPOCH   = 5765
BSTAR          = .48218895E-4
MEAN_MOTION_DOT = .441E-5
MEAN_MOTION_DDOT = 0

CCSDS_OMM_VERS = 2.0
CREATION_DATE  = 
ORIGINATOR     = 

OBJECT_NAME    = COSMOS 1867
OBJECT_ID      = 1987-060A
CENTER_NAME    = EARTH
REF_FRAME      = TEME
TIME_SYSTEM    = UTC
MEAN_ELEMENT_THEORY = SGP/SGP4

EPOCH          = 2025-12-16T20:44:50.155296
MEAN_MOTION    = 14.31486737
ECCENTRICITY   = .00136225
INCLINATION    = 65.0086
RA_OF_ASC_NODE = 178.6516
ARG_OF_PERICENTER = 271.5270
MEAN_ANOMALY   = 88.4254

EPHEMERIS_TYPE = 0
CLASSIFICATION_TYPE = U
NORAD_CAT_ID   = 18187
ELEMENT_SET_NO = 999
REV_AT_EPOCH   = 808
BSTAR          = .33040537E-4
MEAN_MOTION_DOT = -.12E-6
MEAN_MOTION_DDOT = 0

CCSDS_OMM_VERS = 2.0
CREATION_DATE  = 
ORIGINATOR     = 

OBJECT_NAME    = SL-14 R/B
OBJECT_ID      = 1988-001B
CENTER_NAME    = EARTH
REF_FRAME      = TEME
TIME_SYSTEM    = UTC
MEAN_ELEMENT_THEORY = SGP/SGP4

EPOCH          = 2025-12-16T21:18:20.506176
MEAN_MOTION    = 14.85428388
ECCENTRICITY   = .00188355
INCLINATION    = 82.5134
RA_OF_ASC_NODE = 273.2459
ARG_OF_PERICENTER = 147.8327
MEAN_ANOMALY   = 212.4043

EPHEMERIS_TYPE = 0
CLASSIFICATION_TYPE = U
NORAD_CAT_ID   = 18749
ELEMENT_SET_NO = 999
REV_AT_EPOCH   = 2973
BSTAR          = .4835553E-4
MEAN_MOTION_DOT = .442E-5
MEAN_MOTION_DDOT = 0

